EYESAT A (AO-27)        
1 22825U 93061C   26173.45393392  .00000057  00000+0  38710-4 0  9999
2 22825  98.6878 240.8657 0009549  86.2752 273.9523 14.30943433707757
ITAMSAT (IO-26)         
1 22826U 93061D   26173.43177511  .00000058  00000+0  38812-4 0  9995
2 22826  98.6825 240.7615 0009995  71.4845 288.7423 14.31370490708063
RADIO ROSTO (RS15)      
1 23439U 94085A   26173.61470456 -.00000044  00000+0 -44780-4 0  9995
2 23439  64.8186 294.4383 0156121   2.8733 357.3053 11.27583462296516
JAS-2 (FO-29)           
1 24278U 96046B   26173.48650619 -.00000020  00000+0  12357-4 0  9990
2 24278  98.5236  21.6325 0350929  82.7220 281.3662 13.53274621473888
FORTE                   
1 24920U 97047A   26173.27847115  .00000096  00000+0  61788-4 0  9996
2 24920  69.9539   2.5207 0024632 271.2316  88.5984 14.27946830499418
TECHSAT 1B (GO-32)      
1 25397U 98043D   26173.68382816  .00000037  00000+0  36155-4 0  9994
2 25397  99.0069 166.5812 0001325 152.1038 208.0212 14.24429238452118
ISS (ZARYA)             
1 25544U 98067A   26173.73662978  .00008151  00000+0  15395-3 0  9997
2 25544  51.6325 272.6245 0004455 218.9710 141.0958 15.49373286572615
IMAGE                   
1 26113U 00017A   26172.42521202 -.00000086  00000+0  00000+0 0  9990
2 26113  94.2324 315.4279 7428984 287.3239   9.1864  1.68666410161572
CLUSTER II-FM7 (SAMBA)  
1 26410U 00041A   26174.83320430  .00005249  00000+0  00000+0 0  9999
2 26410 149.9074  51.9813 9060461 269.2403 359.6223  0.44848953 20342
CLUSTER II-FM8 (TANGO)  
1 26464U 00045B   26172.94151318  .00004856  00000+0  00000+0 0  9992
2 26464 150.1402  52.7864 9065060 269.8634   2.6567  0.44411872 20338
ODIN                    
1 26702U 01007A   26173.36244081  .00164483  00000+0  97827-3 0  9993
2 26702  97.3823 214.6432 0006576 138.3244 221.8524 15.77483652390219
OMNI-M1                 
1 26857U 01026A   26172.55979507 -.00000020  00000+0  00000+0 0  9993
2 26857  44.8291 244.2559 0014072  54.4534 305.7323  3.92401787205740
PCSAT (NO-44)           
1 26931U 01043C   26173.60725152  .00000029  00000+0  41662-4 0  9999
2 26931  67.0498 230.2533 0006057 264.8434  95.1977 14.31957590291222
PROBA-1                 
1 26958U 01049B   26173.84504590  .00001802  00000+0  11906-3 0  9998
2 26958  97.9597 182.5748 0056307 103.3555 257.3958 15.07510781344472
SAUDISAT 1C (SO-50)     
1 27607U 02058C   26173.21270606  .00000697  00000+0  99777-4 0  9994
2 27607  64.5516 113.4366 0075144 261.5322  97.7262 14.83055677265201
CORIOLIS                
1 27640U 03001A   26173.48205917  .00000082  00000+0  59129-4 0  9997
2 27640  98.7125 180.2861 0013659 192.9626 167.1202 14.19946091214974
CUTE-1 (CO-55)          
1 27844U 03031E   26173.72726103  .00000201  00000+0  10595-3 0  9994
2 27844  98.6736 182.2165 0009866 162.2410 197.9116 14.24338450192466
CUBESAT XI-IV (CO-57)   
1 27848U 03031J   26173.43736598  .00000176  00000+0  96419-4 0  9996
2 27848  98.6767 181.6388 0009388 181.3421 178.7734 14.23623160192127
MOZHAETS 4 (RS22)       
1 27939U 03042A   26173.85795519  .00001035  00000+0  16757-3 0  9994
2 27939  98.3477 358.3770 0009960 249.2406 222.3722 14.73476485216383
